{
  "type": "FeatureCollection",
  "features": [
    {
      "type": "Feature",
      "properties": { "name": "Czech Republic" },
      "geometry": {
        "type": "Polygon",
        "coordinates": [[
          [12.09, 50.32],
          [12.18, 50.20],
          [12.31, 50.17],
          [12.52, 50.03],
          [12.65, 49.87],
          [12.79, 49.72],
          [13.03, 49.31],
          [13.17, 49.10],
          [13.38, 48.98],
          [13.51, 48.93],
          [13.73, 48.87],
          [13.97, 48.77],
          [14.38, 48.59],
          [14.71, 48.60],
          [15.02, 48.63],
          [15.46, 48.76],
          [15.77, 48.86],
          [16.06, 48.76],
          [16.51, 48.81],
          [16.85, 48.72],
          [17.17, 48.86],
          [17.52, 48.83],
          [17.73, 48.85],
          [18.06, 49.08],
          [18.37, 49.30],
          [18.57, 49.50],
          [18.86, 49.53],
          [18.74, 49.70],
          [18.55, 49.83],
          [18.22, 50.00],
          [18.03, 50.22],
          [17.87, 50.27],
          [17.57, 50.39],
          [17.38, 50.49],
          [17.12, 50.70],
          [16.87, 50.87],
          [16.63, 50.97],
          [16.45, 50.91],
          [16.33, 50.80],
          [16.00, 50.68],
          [15.83, 50.87],
          [15.57, 50.97],
          [15.35, 51.00],
          [15.00, 50.98],
          [14.82, 50.87],
          [14.63, 51.05],
          [14.33, 51.05],
          [14.03, 50.92],
          [13.55, 50.97],
          [13.25, 51.00],
          [12.97, 50.82],
          [12.65, 50.47],
          [12.45, 50.38],
          [12.09, 50.32]
        ]]
      }
    }
  ]
}
